sat04362
1 04362U 70025A   20046.67469015 -.00000037  00000-0  13403-4 0  9995
2 04362  99.9739 319.3619 0006890 233.1406 182.6025 13.44608358445916
